{"type": "FeatureCollection", "features": [{"type": "Feature", "properties": {"norad_id": 22490, "name": "SCD 1", "group": "resource", "lat": -20.427329743751006, "lon": -135.74328743056384, "alt_km": 711.6052572734679, "timestamp": "2025-12-12T22:42:12.206315+00:00", "meta": {"OBJECT_NAME": "SCD 1", "OBJECT_ID": "1993-009B", "EPOCH": "2025-12-12T05:23:25.712160", "MEAN_MOTION": 14.4599861, "ECCENTRICITY": 0.00417838, "INCLINATION": 24.97, "RA_OF_ASC_NODE": 281.8676, "ARG_OF_PERICENTER": 319.5532, "MEAN_ANOMALY": 182.0481, "EPHEMERIS_TYPE": 0, "CLASSIFICATION_TYPE": "U", "NORAD_CAT_ID": 22490, "ELEMENT_SET_NO": 999, "REV_AT_EPOCH": 73402, "BSTAR": 0.00015231045, "MEAN_MOTION_DOT": 7.43e-06, "MEAN_MOTION_DDOT": 0}, "tle": {"line1": "1 22490U 93009B   25346.22460315  .00000743  00000+0  15231-3 0  9999", "line2": "2 22490  24.9700 281.8676 0041783 319.5532 182.0481 14.45998610734027"}}, "geometry": {"type": "Point", "coordinates": [-135.74328743056384, -20.427329743751006]}}, {"type": "Feature", "properties": {"norad_id": 25397, "name": "TECHSAT 1B (GO-32)", "group": "resource", "lat": 33.38833706217116, "lon": 156.15314381092452, "alt_km": 808.4651998560421, "timestamp": "2025-12-12T22:42:12.206350+00:00", "meta": {"OBJECT_NAME": "TECHSAT 1B (GO-32)", "OBJECT_ID": "1998-043D", "EPOCH": "2025-12-11T22:25:03.715392", "MEAN_MOTION": 14.2437668, "ECCENTRICITY": 0.00020723, "INCLINATION": 98.992, "RA_OF_ASC_NODE": 329.1276, "ARG_OF_PERICENTER": 58.5928, "MEAN_ANOMALY": 301.5453, "EPHEMERIS_TYPE": 0, "CLASSIFICATION_TYPE": "U", "NORAD_CAT_ID": 25397, "ELEMENT_SET_NO": 999, "REV_AT_EPOCH": 42467, "BSTAR": 9.2210274e-05, "MEAN_MOTION_DOT": 1.67e-06, "MEAN_MOTION_DDOT": 0}, "tle": {"line1": "1 25397U 98043D   25345.93407078  .00000167  00000+0  92210-4 0  9998", "line2": "2 25397  98.9920 329.1276 0002072  58.5928 301.5453 14.24376680424678"}}, "geometry": {"type": "Point", "coordinates": [156.15314381092452, 33.38833706217116]}}, {"type": "Feature", "properties": {"norad_id": 25504, "name": "SCD 2", "group": "resource", "lat": -9.867884947903756, "lon": 118.70299018589272, "alt_km": 728.750119592085, "timestamp": "2025-12-12T22:42:12.206366+00:00", "meta": {"OBJECT_NAME": "SCD 2", "OBJECT_ID": "1998-060A", "EPOCH": "2025-12-11T19:15:45.408960", "MEAN_MOTION": 14.45422604, "ECCENTRICITY": 0.00166284, "INCLINATION": 24.9932, "RA_OF_ASC_NODE": 147.6746, "ARG_OF_PERICENTER": 303.6253, "MEAN_ANOMALY": 190.8041, "EPHEMERIS_TYPE": 0, "CLASSIFICATION_TYPE": "U", "NORAD_CAT_ID": 25504, "ELEMENT_SET_NO": 999, "REV_AT_EPOCH": 43318, "BSTAR": 0.00011789504, "MEAN_MOTION_DOT": 6.04e-06, "MEAN_MOTION_DDOT": 0}, "tle": {"line1": "1 25504U 98060A   25345.80260890  .00000604  00000+0  11790-3 0  9991", "line2": "2 25504  24.9932 147.6746 0016628 303.6253 190.8041 14.45422604433181"}}, "geometry": {"type": "Point", "coordinates": [118.70299018589272, -9.867884947903756]}}, {"type": "Feature", "properties": {"norad_id": 25757, "name": "DLR-TUBSAT", "group": "resource", "lat": 24.631460699768944, "lon": -32.53927843887092, "alt_km": 726.8540628503251, "timestamp": "2025-12-12T22:42:12.206379+00:00", "meta": {"OBJECT_NAME": "DLR-TUBSAT", "OBJECT_ID": "1999-029B", "EPOCH": "2025-12-12T04:24:02.434464", "MEAN_MOTION": 14.52357346, "ECCENTRICITY": 0.00138619, "INCLINATION": 98.6563, "RA_OF_ASC_NODE": 330.6799, "ARG_OF_PERICENTER": 194.5275, "MEAN_ANOMALY": 165.5522, "EPHEMERIS_TYPE": 0, "CLASSIFICATION_TYPE": "U", "NORAD_CAT_ID": 25757, "ELEMENT_SET_NO": 999, "REV_AT_EPOCH": 40610, "BSTAR": 7.3019741e-05, "MEAN_MOTION_DOT": 2.49e-06, "MEAN_MOTION_DDOT": 0}, "tle": {"line1": "1 25757U 99029B   25346.18336151  .00000249  00000+0  73020-4 0  9993", "line2": "2 25757  98.6563 330.6799 0013861 194.5275 165.5522 14.52357346406101"}}, "geometry": {"type": "Point", "coordinates": [-32.53927843887092, 24.631460699768944]}}, {"type": "Feature", "properties": {"norad_id": 25994, "name": "TERRA", "group": "resource", "lat": 80.79445500749061, "lon": -81.4920897596544, "alt_km": 680.2920893853061, "timestamp": "2025-12-12T22:42:12.206392+00:00", "meta": {"OBJECT_NAME": "TERRA", "OBJECT_ID": "1999-068A", "EPOCH": "2025-12-12T06:10:29.161344", "MEAN_MOTION": 14.60901204, "ECCENTRICITY": 0.00036035, "INCLINATION": 97.975, "RA_OF_ASC_NODE": 37.9595, "ARG_OF_PERICENTER": 95.4967, "MEAN_ANOMALY": 339.2568, "EPHEMERIS_TYPE": 0, "CLASSIFICATION_TYPE": "U", "NORAD_CAT_ID": 25994, "ELEMENT_SET_NO": 999, "REV_AT_EPOCH": 38231, "BSTAR": 0.00017223026, "MEAN_MOTION_DOT": 7.98e-06, "MEAN_MOTION_DDOT": 0}, "tle": {"line1": "1 25994U 99068A   25346.25728196  .00000798  00000+0  17223-3 0  9992", "line2": "2 25994  97.9750  37.9595 0003603  95.4967 339.2568 14.60901204382318"}}, "geometry": {"type": "Point", "coordinates": [-81.4920897596544, 80.79445500749061]}}, {"type": "Feature", "properties": {"norad_id": 27004, "name": "MAROC-TUBSAT", "group": "resource", "lat": 16.02560014803677, "lon": 152.5513016046502, "alt_km": 1005.492833893928, "timestamp": "2025-12-12T22:42:12.206404+00:00", "meta": {"OBJECT_NAME": "MAROC-TUBSAT", "OBJECT_ID": "2001-056D", "EPOCH": "2025-12-12T05:58:58.572192", "MEAN_MOTION": 13.70252841, "ECCENTRICITY": 0.0019098, "INCLINATION": 99.7912, "RA_OF_ASC_NODE": 154.6857, "ARG_OF_PERICENTER": 261.45, "MEAN_ANOMALY": 279.8273, "EPHEMERIS_TYPE": 0, "CLASSIFICATION_TYPE": "U", "NORAD_CAT_ID": 27004, "ELEMENT_SET_NO": 999, "REV_AT_EPOCH": 20058, "BSTAR": 4.870257e-05, "MEAN_MOTION_DOT": -4e-08, "MEAN_MOTION_DDOT": 0}, "tle": {"line1": "1 27004U 01056D   25346.24928903 -.00000004  00000+0  48703-4 0  9992", "line2": "2 27004  99.7912 154.6857 0019098 261.4500 279.8273 13.70252841200589"}}, "geometry": {"type": "Point", "coordinates": [152.5513016046502, 16.02560014803677]}}, {"type": "Feature", "properties": {"norad_id": 27424, "name": "AQUA", "group": "resource", "lat": -29.425270644152715, "lon": -47.388613463235046, "alt_km": 693.8442655569816, "timestamp": "2025-12-12T22:42:12.206415+00:00", "meta": {"OBJECT_NAME": "AQUA", "OBJECT_ID": "2002-022A", "EPOCH": "2025-12-12T05:02:00.083616", "MEAN_MOTION": 14.61807191, "ECCENTRICITY": 0.00010697, "INCLINATION": 98.4037, "RA_OF_ASC_NODE": 307.0801, "ARG_OF_PERICENTER": 115.3829, "MEAN_ANOMALY": 302.7153, "EPHEMERIS_TYPE": 0, "CLASSIFICATION_TYPE": "U", "NORAD_CAT_ID": 27424, "ELEMENT_SET_NO": 999, "REV_AT_EPOCH": 25595, "BSTAR": 0.00036768908, "MEAN_MOTION_DOT": 1.787e-05, "MEAN_MOTION_DDOT": 0}, "tle": {"line1": "1 27424U 02022A   25346.20972319  .00001787  00000+0  36769-3 0  9994", "line2": "2 27424  98.4037 307.0801 0001069 115.3829 302.7153 14.61807191255951"}}, "geometry": {"type": "Point", "coordinates": [-47.388613463235046, -29.425270644152715]}}, {"type": "Feature", "properties": {"norad_id": 28051, "name": "IRS-P6 (RESOURCESAT-1)", "group": "resource", "lat": 4.188872447785329, "lon": -152.05067098188485, "alt_km": 728.1789252155068, "timestamp": "2025-12-12T22:42:12.206426+00:00", "meta": {"OBJECT_NAME": "IRS-P6 (RESOURCESAT-1)", "OBJECT_ID": "2003-046A", "EPOCH": "2025-12-12T07:08:50.155872", "MEAN_MOTION": 14.36074572, "ECCENTRICITY": 0.00641026, "INCLINATION": 98.2177, "RA_OF_ASC_NODE": 26.7248, "ARG_OF_PERICENTER": 181.9915, "MEAN_ANOMALY": 244.6942, "EPHEMERIS_TYPE": 0, "CLASSIFICATION_TYPE": "U", "NORAD_CAT_ID": 28051, "ELEMENT_SET_NO": 999, "REV_AT_EPOCH": 15370, "BSTAR": 0.00010670886, "MEAN_MOTION_DOT": 2.77e-06, "MEAN_MOTION_DDOT": 0}, "tle": {"line1": "1 28051U 03046A   25346.29780273  .00000277  00000+0  10671-3 0  9990", "line2": "2 28051  98.2177  26.7248 0064102 181.9915 244.6942 14.36074572153704"}}, "geometry": {"type": "Point", "coordinates": [-152.05067098188485, 4.188872447785329]}}, {"type": "Feature", "properties": {"norad_id": 28220, "name": "SHIYAN-1 (SY-1)", "group": "resource", "lat": 61.38678117790998, "lon": -116.77011283538225, "alt_km": 478.8539349942348, "timestamp": "2025-12-12T22:42:12.206438+00:00", "meta": {"OBJECT_NAME": "SHIYAN-1 (SY-1)", "OBJECT_ID": "2004-012A", "EPOCH": "2025-12-12T03:19:56.357472", "MEAN_MOTION": 15.2811947, "ECCENTRICITY": 0.00056815, "INCLINATION": 97.8934, "RA_OF_ASC_NODE": 47.6413, "ARG_OF_PERICENTER": 327.7572, "MEAN_ANOMALY": 32.3318, "EPHEMERIS_TYPE": 0, "CLASSIFICATION_TYPE": "U", "NORAD_CAT_ID": 28220, "ELEMENT_SET_NO": 999, "REV_AT_EPOCH": 18247, "BSTAR": 0.00070987667, "MEAN_MOTION_DOT": 0.00019419, "MEAN_MOTION_DDOT": 0}, "tle": {"line1": "1 28220U 04012A   25346.13884673  .00019419  00000+0  70988-3 0  9999", "line2": "2 28220  97.8934  47.6413 0005681 327.7572  32.3318 15.28119470182474"}}, "geometry": {"type": "Point", "coordinates": [-116.77011283538225, 61.38678117790998]}}, {"type": "Feature", "properties": {"norad_id": 28376, "name": "AURA", "group": "resource", "lat": 76.22449443472377, "lon": 153.81191312848202, "alt_km": 682.0399807180775, "timestamp": "2025-12-12T22:42:12.206449+00:00", "meta": {"OBJECT_NAME": "AURA", "OBJECT_ID": "2004-026A", "EPOCH": "2025-12-12T05:48:19.593216", "MEAN_MOTION": 14.60945214, "ECCENTRICITY": 0.00012299, "INCLINATION": 98.3184, "RA_OF_ASC_NODE": 296.4661, "ARG_OF_PERICENTER": 93.8169, "MEAN_ANOMALY": 266.3172, "EPHEMERIS_TYPE": 0, "CLASSIFICATION_TYPE": "U", "NORAD_CAT_ID": 28376, "ELEMENT_SET_NO": 999, "REV_AT_EPOCH": 13891, "BSTAR": 0.00037893916, "MEAN_MOTION_DOT": 1.809e-05, "MEAN_MOTION_DDOT": 0}, "tle": {"line1": "1 28376U 04026A   25346.24189344  .00001809  00000+0  37894-3 0  9994", "line2": "2 28376  98.3184 296.4661 0001229  93.8169 266.3172 14.60945214138910"}}, "geometry": {"type": "Point", "coordinates": [153.81191312848202, 76.22449443472377]}}]}